SAR-LUPE 2              
1 31797U 07030A   26115.95220080  .00011944  00000+0  26044-3 0  9995
2 31797  98.0989 214.2051 0009817 296.7791  63.2451 15.44380621 48864
SAPPHIRE                
1 39088U 13009C   26115.94516710  .00000105  00000+0  51645-4 0  9999
2 39088  98.4252 296.6441 0012060  49.0371 311.1857 14.35225960689089
PRAETORIAN SDA_602      
1 65565U 25203A   26115.84075757  .00000310  00000+0  26686-3 0  9991
2 65565  81.3038  59.2522 0005903 347.3060  12.7947 13.84335742 31450
PRAETORIAN SDA_603      
1 65566U 25203B   26115.85093050  .00000338  00000+0  29385-3 0  9998
2 65566  81.3040  59.1221 0009380 342.5005  17.5827 13.83898401 31464
PRAETORIAN SDA_604      
1 65567U 25203C   26115.83814437  .00000020  00000+0  72239-5 0  9993
2 65567  81.3057  59.4659 0005630 355.3652   4.7451 13.83038864 31443
PRAETORIAN SDA_605      
1 65568U 25203D   26115.96278744  .00000085  00000+0  66216-4 0  9991
2 65568  81.3023  59.0651 0008021 339.5426  20.5407 13.83426685 31477
PRAETORIAN SDA_606      
1 65569U 25203E   26115.94658480  .00000113  00000+0  91973-4 0  9999
2 65569  81.3060  59.2841 0005748 344.6727  15.4254 13.83534334 31469
PRAETORIAN SDA_607      
1 65570U 25203F   26115.84107672  .00000264  00000+0  22612-3 0  9992
2 65570  81.3044  59.1209 0008754 343.5051  16.5819 13.84319437 31463
PRAETORIAN SDA_608      
1 65571U 25203G   26115.94519349  .00000062  00000+0  45290-4 0  9996
2 65571  81.3012  59.1652 0006088 352.7219   7.3848 13.83808422 31463
PRAETORIAN SDA_609      
1 65572U 25203H   26115.89570345  .00000256  00000+0  21836-3 0  9998
2 65572  81.3057  59.2090 0006806 344.6131  15.4818 13.84303353 31462
PRAETORIAN SDA_610      
1 65573U 25203J   26115.85532717  .00000048  00000+0  32572-4 0  9995
2 65573  81.3012  59.2116 0006483 348.4137  11.6870 13.83914632 31454
PRAETORIAN SDA_611      
1 65574U 25203K   26115.90658508  .00000086  00000+0  67358-4 0  9991
2 65574  81.3011  59.2834 0005812 357.9523   2.1608 13.83301846 31451
PRAETORIAN SDA_612      
1 65575U 25203L   26115.96140321  .00000214  00000+0  17920-3 0  9999
2 65575  81.3032  58.9473 0009059 342.0403  18.0433 13.85030899 31483
PRAETORIAN SDA_613      
1 65576U 25203M   26115.89608086  .00000060  00000+0  44486-4 0  9996
2 65576  81.3004  59.2567 0005730 350.5792   9.5256 13.82946428 31454
PRAETORIAN SDA_614      
1 65577U 25203N   26115.94078870  .00000067  00000+0  49315-4 0  9998
2 65577  81.3019  59.0314 0007009 342.8649  17.2271 13.84770746 31481
PRAETORIAN SDA_615      
1 65578U 25203P   26115.90475880  .00000230  00000+0  19451-3 0  9996
2 65578  81.3030  58.9957 0008901 340.9583  19.1240 13.84428137 31474
