[{"OBJECT_NAME":"SAR-LUPE 2","OBJECT_ID":"2007-030A","EPOCH":"2026-04-25T22:51:10.149120","MEAN_MOTION":15.44380621,"ECCENTRICITY":0.00098174,"INCLINATION":98.0989,"RA_OF_ASC_NODE":214.2051,"ARG_OF_PERICENTER":296.7791,"MEAN_ANOMALY":63.2451,"EPHEMERIS_TYPE":0,"CLASSIFICATION_TYPE":"U","NORAD_CAT_ID":31797,"ELEMENT_SET_NO":999,"REV_AT_EPOCH":4886,"BSTAR":0.00026043699,"MEAN_MOTION_DOT":0.00011944,"MEAN_MOTION_DDOT":0},{"OBJECT_NAME":"SAPPHIRE","OBJECT_ID":"2013-009C","EPOCH":"2026-04-25T22:41:02.437440","MEAN_MOTION":14.3522596,"ECCENTRICITY":0.00120607,"INCLINATION":98.4252,"RA_OF_ASC_NODE":296.6441,"ARG_OF_PERICENTER":49.0371,"MEAN_ANOMALY":311.1857,"EPHEMERIS_TYPE":0,"CLASSIFICATION_TYPE":"U","NORAD_CAT_ID":39088,"ELEMENT_SET_NO":999,"REV_AT_EPOCH":68908,"BSTAR":5.1645275e-5,"MEAN_MOTION_DOT":1.05e-6,"MEAN_MOTION_DDOT":0},{"OBJECT_NAME":"PRAETORIAN SDA_602","OBJECT_ID":"2025-203A","EPOCH":"2026-04-25T20:10:41.454048","MEAN_MOTION":13.84335742,"ECCENTRICITY":0.00059032,"INCLINATION":81.3038,"RA_OF_ASC_NODE":59.2522,"ARG_OF_PERICENTER":347.306,"MEAN_ANOMALY":12.7947,"EPHEMERIS_TYPE":0,"CLASSIFICATION_TYPE":"U","NORAD_CAT_ID":65565,"ELEMENT_SET_NO":999,"REV_AT_EPOCH":3145,"BSTAR":0.00026686278,"MEAN_MOTION_DOT":3.1e-6,"MEAN_MOTION_DDOT":0},{"OBJECT_NAME":"PRAETORIAN SDA_603","OBJECT_ID":"2025-203B","EPOCH":"2026-04-25T20:25:20.395200","MEAN_MOTION":13.83898401,"ECCENTRICITY":0.00093807,"INCLINATION":81.304,"RA_OF_ASC_NODE":59.1221,"ARG_OF_PERICENTER":342.5005,"MEAN_ANOMALY":17.5827,"EPHEMERIS_TYPE":0,"CLASSIFICATION_TYPE":"U","NORAD_CAT_ID":65566,"ELEMENT_SET_NO":999,"REV_AT_EPOCH":3146,"BSTAR":0.0002938504,"MEAN_MOTION_DOT":3.38e-6,"MEAN_MOTION_DDOT":0},{"OBJECT_NAME":"PRAETORIAN SDA_604","OBJECT_ID":"2025-203C","EPOCH":"2026-04-25T20:06:55.673568","MEAN_MOTION":13.83038864,"ECCENTRICITY":0.00056304,"INCLINATION":81.3057,"RA_OF_ASC_NODE":59.4659,"ARG_OF_PERICENTER":355.3652,"MEAN_ANOMALY":4.7451,"EPHEMERIS_TYPE":0,"CLASSIFICATION_TYPE":"U","NORAD_CAT_ID":65567,"ELEMENT_SET_NO":999,"REV_AT_EPOCH":3144,"BSTAR":7.223904e-6,"MEAN_MOTION_DOT":2.0e-7,"MEAN_MOTION_DDOT":0},{"OBJECT_NAME":"PRAETORIAN SDA_605","OBJECT_ID":"2025-203D","EPOCH":"2026-04-25T23:06:24.834816","MEAN_MOTION":13.83426685,"ECCENTRICITY":0.00080215,"INCLINATION":81.3023,"RA_OF_ASC_NODE":59.0651,"ARG_OF_PERICENTER":339.5426,"MEAN_ANOMALY":20.5407,"EPHEMERIS_TYPE":0,"CLASSIFICATION_TYPE":"U","NORAD_CAT_ID":65568,"ELEMENT_SET_NO":999,"REV_AT_EPOCH":3147,"BSTAR":6.6216204e-5,"MEAN_MOTION_DOT":8.5e-7,"MEAN_MOTION_DDOT":0},{"OBJECT_NAME":"PRAETORIAN SDA_606","OBJECT_ID":"2025-203E","EPOCH":"2026-04-25T22:43:04.926720","MEAN_MOTION":13.83534334,"ECCENTRICITY":0.00057488,"INCLINATION":81.306,"RA_OF_ASC_NODE":59.2841,"ARG_OF_PERICENTER":344.6727,"MEAN_ANOMALY":15.4254,"EPHEMERIS_TYPE":0,"CLASSIFICATION_TYPE":"U","NORAD_CAT_ID":65569,"ELEMENT_SET_NO":999,"REV_AT_EPOCH":3146,"BSTAR":9.1972879e-5,"MEAN_MOTION_DOT":1.13e-6,"MEAN_MOTION_DDOT":0},{"OBJECT_NAME":"PRAETORIAN SDA_607","OBJECT_ID":"2025-203F","EPOCH":"2026-04-25T20:11:09.028608","MEAN_MOTION":13.84319437,"ECCENTRICITY":0.00087546,"INCLINATION":81.3044,"RA_OF_ASC_NODE":59.1209,"ARG_OF_PERICENTER":343.5051,"MEAN_ANOMALY":16.5819,"EPHEMERIS_TYPE":0,"CLASSIFICATION_TYPE":"U","NORAD_CAT_ID":65570,"ELEMENT_SET_NO":999,"REV_AT_EPOCH":3146,"BSTAR":0.00022611927,"MEAN_MOTION_DOT":2.64e-6,"MEAN_MOTION_DDOT":0},{"OBJECT_NAME":"PRAETORIAN SDA_608","OBJECT_ID":"2025-203G","EPOCH":"2026-04-25T22:41:04.717536","MEAN_MOTION":13.83808422,"ECCENTRICITY":0.00060887,"INCLINATION":81.3012,"RA_OF_ASC_NODE":59.1652,"ARG_OF_PERICENTER":352.7219,"MEAN_ANOMALY":7.3848,"EPHEMERIS_TYPE":0,"CLASSIFICATION_TYPE":"U","NORAD_CAT_ID":65571,"ELEMENT_SET_NO":999,"REV_AT_EPOCH":3146,"BSTAR":4.5290175e-5,"MEAN_MOTION_DOT":6.2e-7,"MEAN_MOTION_DDOT":0},{"OBJECT_NAME":"PRAETORIAN SDA_609","OBJECT_ID":"2025-203H","EPOCH":"2026-04-25T21:29:48.778080","MEAN_MOTION":13.84303353,"ECCENTRICITY":0.00068067,"INCLINATION":81.3057,"RA_OF_ASC_NODE":59.209,"ARG_OF_PERICENTER":344.6131,"MEAN_ANOMALY":15.4818,"EPHEMERIS_TYPE":0,"CLASSIFICATION_TYPE":"U","NORAD_CAT_ID":65572,"ELEMENT_SET_NO":999,"REV_AT_EPOCH":3146,"BSTAR":0.00021835895,"MEAN_MOTION_DOT":2.56e-6,"MEAN_MOTION_DDOT":0},{"OBJECT_NAME":"PRAETORIAN SDA_610","OBJECT_ID":"2025-203J","EPOCH":"2026-04-25T20:31:40.267488","MEAN_MOTION":13.83914632,"ECCENTRICITY":0.00064837,"INCLINATION":81.3012,"RA_OF_ASC_NODE":59.2116,"ARG_OF_PERICENTER":348.4137,"MEAN_ANOMALY":11.687,"EPHEMERIS_TYPE":0,"CLASSIFICATION_TYPE":"U","NORAD_CAT_ID":65573,"ELEMENT_SET_NO":999,"REV_AT_EPOCH":3145,"BSTAR":3.2572398e-5,"MEAN_MOTION_DOT":4.8e-7,"MEAN_MOTION_DDOT":0},{"OBJECT_NAME":"PRAETORIAN SDA_611","OBJECT_ID":"2025-203K","EPOCH":"2026-04-25T21:45:28.950912","MEAN_MOTION":13.83301846,"ECCENTRICITY":0.00058126,"INCLINATION":81.3011,"RA_OF_ASC_NODE":59.2834,"ARG_OF_PERICENTER":357.9523,"MEAN_ANOMALY":2.1608,"EPHEMERIS_TYPE":0,"CLASSIFICATION_TYPE":"U","NORAD_CAT_ID":65574,"ELEMENT_SET_NO":999,"REV_AT_EPOCH":3145,"BSTAR":6.735792e-5,"MEAN_MOTION_DOT":8.6e-7,"MEAN_MOTION_DDOT":0},{"OBJECT_NAME":"PRAETORIAN SDA_612","OBJECT_ID":"2025-203L","EPOCH":"2026-04-25T23:04:25.237344","MEAN_MOTION":13.85030899,"ECCENTRICITY":0.00090593,"INCLINATION":81.3032,"RA_OF_ASC_NODE":58.9473,"ARG_OF_PERICENTER":342.0403,"MEAN_ANOMALY":18.0433,"EPHEMERIS_TYPE":0,"CLASSIFICATION_TYPE":"U","NORAD_CAT_ID":65575,"ELEMENT_SET_NO":999,"REV_AT_EPOCH":3148,"BSTAR":0.00017920089,"MEAN_MOTION_DOT":2.14e-6,"MEAN_MOTION_DDOT":0},{"OBJECT_NAME":"PRAETORIAN SDA_613","OBJECT_ID":"2025-203M","EPOCH":"2026-04-25T21:30:21.386304","MEAN_MOTION":13.82946428,"ECCENTRICITY":0.000573,"INCLINATION":81.3004,"RA_OF_ASC_NODE":59.2567,"ARG_OF_PERICENTER":350.5792,"MEAN_ANOMALY":9.5256,"EPHEMERIS_TYPE":0,"CLASSIFICATION_TYPE":"U","NORAD_CAT_ID":65576,"ELEMENT_SET_NO":999,"REV_AT_EPOCH":3145,"BSTAR":4.4485818e-5,"MEAN_MOTION_DOT":6.0e-7,"MEAN_MOTION_DDOT":0},{"OBJECT_NAME":"PRAETORIAN SDA_614","OBJECT_ID":"2025-203N","EPOCH":"2026-04-25T22:34:44.143680","MEAN_MOTION":13.84770746,"ECCENTRICITY":0.00070099,"INCLINATION":81.3019,"RA_OF_ASC_NODE":59.0314,"ARG_OF_PERICENTER":342.8649,"MEAN_ANOMALY":17.2271,"EPHEMERIS_TYPE":0,"CLASSIFICATION_TYPE":"U","NORAD_CAT_ID":65577,"ELEMENT_SET_NO":999,"REV_AT_EPOCH":3148,"BSTAR":4.9315362e-5,"MEAN_MOTION_DOT":6.7e-7,"MEAN_MOTION_DDOT":0},{"OBJECT_NAME":"PRAETORIAN SDA_615","OBJECT_ID":"2025-203P","EPOCH":"2026-04-25T21:42:51.160320","MEAN_MOTION":13.84428137,"ECCENTRICITY":0.00089014,"INCLINATION":81.303,"RA_OF_ASC_NODE":58.9957,"ARG_OF_PERICENTER":340.9583,"MEAN_ANOMALY":19.124,"EPHEMERIS_TYPE":0,"CLASSIFICATION_TYPE":"U","NORAD_CAT_ID":65578,"ELEMENT_SET_NO":999,"REV_AT_EPOCH":3147,"BSTAR":0.00019450542,"MEAN_MOTION_DOT":2.3e-6,"MEAN_MOTION_DDOT":0}]
